SL-14 R/B               
1 16792U 86046B   26089.41785101  .00000645  00000+0  71328-4 0  9990
2 16792  82.4806  60.5914 0023677 155.9679 204.2648 14.85611015129489
SL-14 R/B               
1 16882U 86055B   26089.55785426  .00000581  00000+0  64124-4 0  9990
2 16882  82.5169 107.0542 0017320 262.5594 214.7936 14.85661488122461
AJISAI (EGS)            
1 16908U 86061A   26089.53799604 -.00000107  00000+0 -65887-4 0  9990
2 16908  50.0115  29.2382 0011341 340.6825 191.7861 12.44515627470597
SL-14 R/B               
1 17567U 87024B   26089.44369518  .00000638  00000+0  69805-4 0  9990
2 17567  82.5255  73.2513 0017959 187.1067 172.9898 14.86152446 91215
COSMOS 1833             
1 17589U 87027A   26089.53090567 -.00000284  00000+0 -12596-3 0  9995
2 17589  70.9170 282.2128 0023191 183.7360 176.3592 14.13046685 13268
SL-16 R/B               
1 17590U 87027B   26089.58528234  .00000097  00000+0  71859-4 0  9997
2 17590  71.0017 232.4588 0002861  91.1173 269.0279 14.17166038 18305
SL-14 R/B               
1 17912U 87038B   26089.51668343  .00000631  00000+0  70202-4 0  9991
2 17912  82.4977 277.1819 0020764  95.4817 264.8769 14.85388645 82326
COSMOS 1844             
1 17973U 87041A   26089.47317657  .00000411  00000+0  23829-3 0  9994
2 17973  70.9016 350.3397 0031160 347.4717  12.5626 14.14558043  6526
SL-14 R/B               
1 18153U 87055B   26089.62456986  .00000538  00000+0  59184-4 0  9990
2 18153  82.5004 329.3035 0019411 307.1843  52.7600 14.85650353 73040
COSMOS 1867             
1 18187U 87060A   26089.53943542 -.00000028  00000+0  27082-4 0  9999
2 18187  65.0096 248.3124 0014852 279.8731  80.0677 14.31506329 22921
SL-14 R/B               
1 18749U 88001B   26089.48667144  .00000599  00000+0  66288-4 0  9997
2 18749  82.5159 175.8063 0018480 165.0962 195.0803 14.85550813 45118
COSMOS 1933             
1 18958U 88020A   26089.48730845  .00006208  00000+0  30228-3 0  9996
2 18958  82.5122 230.3299 0005299 119.4704 240.7059 15.18181753 53388
